[{"OBJECT_NAME":"YUNHAI-2 02E","OBJECT_ID":"2024-052E","EPOCH":"2026-03-09T23:04:08.218272","MEAN_MOTION":14.27923834,"ECCENTRICITY":0.00117453,"INCLINATION":50.0117,"RA_OF_ASC_NODE":23.2487,"ARG_OF_PERICENTER":69.3739,"MEAN_ANOMALY":290.8434,"EPHEMERIS_TYPE":0,"CLASSIFICATION_TYPE":"U","NORAD_CAT_ID":59284,"ELEMENT_SET_NO":999,"REV_AT_EPOCH":9275,"BSTAR":0.0001398659,"MEAN_MOTION_DOT":1.88e-6,"MEAN_MOTION_DDOT":0},{"OBJECT_NAME":"CZ-6A DEB","OBJECT_ID":"2022-151AHT","EPOCH":"2026-03-07T22:59:59.337024","MEAN_MOTION":14.17744393,"ECCENTRICITY":0.00381233,"INCLINATION":98.8244,"RA_OF_ASC_NODE":75.3132,"ARG_OF_PERICENTER":239.6285,"MEAN_ANOMALY":120.1118,"EPHEMERIS_TYPE":0,"CLASSIFICATION_TYPE":"U","NORAD_CAT_ID":57576,"ELEMENT_SET_NO":999,"REV_AT_EPOCH":14914,"BSTAR":0.0015203243,"MEAN_MOTION_DOT":3.077e-5,"MEAN_MOTION_DDOT":0}]
